TEVEL2-3                
1 63218U 25052J   26068.64540225  .00020365  00000+0  69446-3 0  9991
2 63218  97.3994 324.7775 0004761 105.7353 254.4413 15.30377031 54855
STARLINK-35155          
1 65935U 25225AB  26068.54405613  .00028604  00000+0  97461-3 0  9993
2 65935  53.1580 166.5057 0001001  83.3005 276.8110 15.30184809 23495
