[{"OBJECT_NAME":"TEVEL2-3","OBJECT_ID":"2025-052J","EPOCH":"2026-03-09T15:29:22.754400","MEAN_MOTION":15.30377031,"ECCENTRICITY":0.0004761,"INCLINATION":97.3994,"RA_OF_ASC_NODE":324.7775,"ARG_OF_PERICENTER":105.7353,"MEAN_ANOMALY":254.4413,"EPHEMERIS_TYPE":0,"CLASSIFICATION_TYPE":"U","NORAD_CAT_ID":63218,"ELEMENT_SET_NO":999,"REV_AT_EPOCH":5485,"BSTAR":0.00069446,"MEAN_MOTION_DOT":0.00020365,"MEAN_MOTION_DDOT":0},{"OBJECT_NAME":"STARLINK-35155","OBJECT_ID":"2025-225AB","EPOCH":"2026-03-09T13:03:26.449632","MEAN_MOTION":15.30184809,"ECCENTRICITY":0.00010015,"INCLINATION":53.158,"RA_OF_ASC_NODE":166.5057,"ARG_OF_PERICENTER":83.3005,"MEAN_ANOMALY":276.811,"EPHEMERIS_TYPE":0,"CLASSIFICATION_TYPE":"U","NORAD_CAT_ID":65935,"ELEMENT_SET_NO":999,"REV_AT_EPOCH":2349,"BSTAR":0.00097461125,"MEAN_MOTION_DOT":0.00028604,"MEAN_MOTION_DDOT":0}]
